[{"OBJECT_NAME":"STARLINK-5724","OBJECT_ID":"2023-061BF","EPOCH":"2026-03-09T07:42:09.860544","MEAN_MOTION":15.02532142,"ECCENTRICITY":0.00014253,"INCLINATION":43.0032,"RA_OF_ASC_NODE":173.9255,"ARG_OF_PERICENTER":258.3214,"MEAN_ANOMALY":101.7468,"EPHEMERIS_TYPE":0,"CLASSIFICATION_TYPE":"U","NORAD_CAT_ID":56427,"ELEMENT_SET_NO":999,"REV_AT_EPOCH":15699,"BSTAR":-3.2782954e-5,"MEAN_MOTION_DOT":-6.46e-6,"MEAN_MOTION_DDOT":0},{"OBJECT_NAME":"CRRES DEB [CANISTER]","OBJECT_ID":"1990-065E","EPOCH":"2026-02-28T16:38:33.417312","MEAN_MOTION":2.66316166,"ECCENTRICITY":0.69462633,"INCLINATION":18.0391,"RA_OF_ASC_NODE":314.92,"ARG_OF_PERICENTER":210.5761,"MEAN_ANOMALY":78.1374,"EPHEMERIS_TYPE":0,"CLASSIFICATION_TYPE":"U","NORAD_CAT_ID":21589,"ELEMENT_SET_NO":999,"REV_AT_EPOCH":12830,"BSTAR":0.0013133682,"MEAN_MOTION_DOT":8.47e-6,"MEAN_MOTION_DDOT":0}]
